{
    "links": {
        "self": "http://www.neowsapp.com/rest/v1/neo/3776124?api_key=iIulBulltgU6a56xZRHN4H3l9WmuAYTsLGpBGhQ2"
    },
    "id": "3776124",
    "neo_reference_id": "3776124",
    "name": "(2017 MV7)",
    "designation": "2017 MV7",
    "nasa_jpl_url": "http://ssd.jpl.nasa.gov/sbdb.cgi?sstr=3776124",
    "absolute_magnitude_h": 20.2,
    "estimated_diameter": {
        "kilometers": {
            "estimated_diameter_min": 0.2424124811,
            "estimated_diameter_max": 0.5420507863
        },
        "meters": {
            "estimated_diameter_min": 242.4124811008,
            "estimated_diameter_max": 542.0507863358
        },
        "miles": {
            "estimated_diameter_min": 0.1506280858,
            "estimated_diameter_max": 0.3368146392
        },
        "feet": {
            "estimated_diameter_min": 795.3165644948,
            "estimated_diameter_max": 1778.3819018419
        }
    },
    "is_potentially_hazardous_asteroid": false,
    "close_approach_data": [
        {
            "close_approach_date": "2017-06-20",
            "close_approach_date_full": "2017-Jun-20 14:21",
            "epoch_date_close_approach": 1497968460000,
            "relative_velocity": {
                "kilometers_per_second": "22.0879626546",
                "kilometers_per_hour": "79516.6655565906",
                "miles_per_hour": "49408.5636620938"
            },
            "miss_distance": {
                "astronomical": "0.2182931595",
                "lunar": "84.9160390455",
                "kilometers": "32656191.696770265",
                "miles": "20291616.585609057"
            },
            "orbiting_body": "Earth"
        }
    ],
    "orbital_data": {
        "orbit_id": "6",
        "orbit_determination_date": "2017-09-27 06:51:00",
        "first_observation_date": "2017-06-27",
        "last_observation_date": "2017-07-04",
        "data_arc_in_days": 7,
        "observations_used": 60,
        "orbit_uncertainty": "9",
        "minimum_orbit_intersection": ".125405",
        "jupiter_tisserand_invariant": "3.725",
        "epoch_osculation": "2457934.5",
        "eccentricity": ".6397712032960134",
        "semi_major_axis": "1.750437466373733",
        "inclination": "32.39298232639999",
        "ascending_node_longitude": "106.2681632923805",
        "orbital_period": "845.8986414444893",
        "perihelion_distance": ".6305579822173849",
        "perihelion_argument": "65.80186433720661",
        "aphelion_distance": "2.870316950530082",
        "perihelion_time": "2457862.309027971959",
        "mean_anomaly": "30.72324349134238",
        "mean_motion": ".4255829036269051",
        "equinox": "J2000",
        "orbit_class": {
            "orbit_class_type": "APO",
            "orbit_class_description": "Near-Earth asteroid orbits which cross the Earth’s orbit similar to that of 1862 Apollo",
            "orbit_class_range": "a (semi-major axis) > 1.0 AU; q (perihelion) < 1.017 AU"
        }
    },
    "is_sentry_object": false
}